[{"OBJECT_NAME":"HULIANWANG DIGUI-06","OBJECT_ID":"2024-240F","EPOCH":"2026-03-09T21:59:59.709984","MEAN_MOTION":13.24423401,"ECCENTRICITY":0.00020853,"INCLINATION":86.5019,"RA_OF_ASC_NODE":16.594,"ARG_OF_PERICENTER":86.8456,"MEAN_ANOMALY":273.2917,"EPHEMERIS_TYPE":0,"CLASSIFICATION_TYPE":"U","NORAD_CAT_ID":62328,"ELEMENT_SET_NO":999,"REV_AT_EPOCH":5950,"BSTAR":9.2999347e-5,"MEAN_MOTION_DOT":5.5e-7,"MEAN_MOTION_DDOT":0},{"OBJECT_NAME":"SL-14 DEB","OBJECT_ID":"1991-056BQ","EPOCH":"2026-03-09T08:33:35.379936","MEAN_MOTION":13.25026932,"ECCENTRICITY":0.00362623,"INCLINATION":82.5917,"RA_OF_ASC_NODE":200.3207,"ARG_OF_PERICENTER":267.7716,"MEAN_ANOMALY":91.9259,"EPHEMERIS_TYPE":0,"CLASSIFICATION_TYPE":"U","NORAD_CAT_ID":45326,"ELEMENT_SET_NO":999,"REV_AT_EPOCH":29297,"BSTAR":0.0017802165,"MEAN_MOTION_DOT":7.86e-6,"MEAN_MOTION_DDOT":0}]
